NORAD_CAT_ID,OBJECT_NAME,OBJECT_TYPE,EPOCH,MEAN_MOTION,ECCENTRICITY,INCLINATION,RA_OF_ASC_NODE,ARG_OF_PERICENTER,MEAN_ANOMALY,BSTAR,MEAN_MOTION_DOT,MEAN_MOTION_DDOT,TLE_LINE0,TLE_LINE1,TLE_LINE2,SEMIMAJOR_AXIS,PERIOD,APOGEE,PERIGEE,DECAYED
51884.0,STARLINK-3577,PAYLOAD,2024-07-27 21:49:31,15.08866011,0.0001291,53.2152,126.7485,92.8344,267.2796,0.00088475,0.00013831,0.0,0 STARLINK-3577,1 51884U 22022AJ  24209.90939289  .00013831  00000-0  88475-3 0  9991,2 51884  53.2152 126.7485 0001291  92.8344 267.2796 15.08866011134296,6917.801,95.436,540.559,538.773,0.0
51884.0,STARLINK-3577,PAYLOAD,2024-07-28 05:46:28,15.08802694,0.0001462,53.216,125.262,65.4375,294.6769,0.0012273,0.00019278,0.0,0 STARLINK-3577,1 51884U 22022AJ  24210.24060331  .00019278  00000-0  12273-2 0  9996,2 51884  53.2160 125.2620 0001462  65.4375 294.6769 15.08802694134347,6917.994,95.44,540.871,538.848,0.0
51884.0,STARLINK-3577,PAYLOAD,2024-07-28 21:40:20,15.08824915,0.0001424,53.2152,122.2883,65.5651,294.549,0.0011604,0.0001822,0.0,0 STARLINK-3577,1 51884U 22022AJ  24210.90301452  .00018220  00000-0  11604-2 0  9994,2 51884  53.2152 122.2883 0001424  65.5651 294.5490 15.08824915134443,6917.926,95.439,540.777,538.806,0.0
51884.0,STARLINK-3577,PAYLOAD,2024-07-29 00:51:06,15.08832498,0.0001452,53.2156,121.6925,69.137,290.9777,0.0012399,0.00019496,0.0,0 STARLINK-3577,1 51884U 22022AJ  24211.03549470  .00019496  00000-0  12399-2 0  9991,2 51884  53.2156 121.6925 0001452  69.1370 290.9777 15.08832498134461,6917.903,95.438,540.773,538.764,0.0
51884.0,STARLINK-3577,PAYLOAD,2024-07-29 21:31:07,15.0884898,0.0001453,53.2159,117.8259,72.1116,288.0035,0.00083924,0.00013097,0.0,0 STARLINK-3577,1 51884U 22022AJ  24211.89661557  .00013097  00000-0  83924-3 0  9990,2 51884  53.2159 117.8259 0001453  72.1116 288.0035 15.08848980134596,6917.853,95.437,540.723,538.713,0.0
51884.0,STARLINK-3577,PAYLOAD,2024-07-30 00:41:53,15.0884986,0.0001419,53.2158,117.2286,74.3513,285.7635,0.00075838,0.00011805,0.0,0 STARLINK-3577,1 51884U 22022AJ  24212.02909465  .00011805  00000-0  75838-3 0  9999,2 51884  53.2158 117.2286 0001419  74.3513 285.7635 15.08849860134617,6917.85,95.437,540.697,538.734,0.0
51884.0,STARLINK-3577,PAYLOAD,2024-07-30 10:14:12,15.0886714,0.0001386,53.2162,115.4457,79.795,280.3198,0.0010693,0.00016783,0.0,0 STARLINK-3577,1 51884U 22022AJ  24212.42652854  .00016783  00000-0  10693-2 0  9997,2 51884  53.2162 115.4457 0001386  79.7950 280.3198 15.08867140134671,6917.797,95.436,540.621,538.704,0.0
51884.0,STARLINK-3577,PAYLOAD,2024-07-30 22:57:17,15.08846747,0.000148,53.2165,113.0706,103.9956,256.1201,0.0002038,2.958e-05,0.0,0 STARLINK-3577,1 51884U 22022AJ  24212.95644980  .00002958  00000-0  20380-3 0  9990,2 51884  53.2165 113.0706 0001480 103.9956 256.1201 15.08846747134751,6917.86,95.437,540.749,538.701,0.0
51884.0,STARLINK-3577,PAYLOAD,2024-07-31 00:32:40,15.08849771,0.0001493,53.2165,112.7736,107.2375,252.8781,0.00028923,4.319e-05,0.0,0 STARLINK-3577,1 51884U 22022AJ  24213.02268944  .00004319  00000-0  28923-3 0  9995,2 51884  53.2165 112.7736 0001493 107.2375 252.8781 15.08849771134763,6917.851,95.437,540.748,538.683,0.0
51884.0,STARLINK-3577,PAYLOAD,2024-07-31 10:04:58,15.08869129,0.0001435,53.217,110.989,103.5371,256.5781,0.00084279,0.00013161,0.0,0 STARLINK-3577,1 51884U 22022AJ  24213.42012281  .00013161  00000-0  84279-3 0  9991,2 51884  53.2170 110.9890 0001435 103.5371 256.5781 15.08869129134828,6917.791,95.436,540.649,538.664,0.0
51884.0,STARLINK-3577,PAYLOAD,2024-07-31 21:12:41,15.08828423,0.0001231,53.2157,108.9049,83.886,276.2272,-5.2676e-05,-1.126e-05,0.0,0 STARLINK-3577,1 51884U 22022AJ  24213.88381286 -.00001126  00000-0 -52676-4 0  9992,2 51884  53.2157 108.9049 0001231  83.8860 276.2272 15.08828423134896,6917.916,95.438,540.632,538.929,0.0
51884.0,STARLINK-3577,PAYLOAD,2024-07-31 22:48:04,15.08833141,0.0001309,53.2157,108.6075,81.5697,278.5444,0.00026114,3.87e-05,0.0,0 STARLINK-3577,1 51884U 22022AJ  24213.95005340  .00003870  00000-0  26114-3 0  9997,2 51884  53.2157 108.6075 0001309  81.5697 278.5444 15.08833141134902,6917.901,95.438,540.672,538.861,0.0
51884.0,STARLINK-3577,PAYLOAD,2024-08-01 00:23:27,15.08842162,0.0001236,53.2159,108.3105,80.872,279.2412,0.00073256,0.00011391,0.0,0 STARLINK-3577,1 51884U 22022AJ  24214.01629297  .00011391  00000-0  73256-3 0  9994,2 51884  53.2159 108.3105 0001236  80.8720 279.2412 15.08842162134910,6917.874,95.437,540.594,538.884,0.0
51884.0,STARLINK-3577,PAYLOAD,2024-08-01 21:03:29,15.08841684,0.000136,53.2165,104.4482,83.9235,276.1912,0.00098013,0.00015346,0.0,0 STARLINK-3577,1 51884U 22022AJ  24214.87742177  .00015346  00000-0  98013-3 0  9993,2 51884  53.2165 104.4482 0001360  83.9235 276.1912 15.08841684135049,6917.875,95.437,540.681,538.799,0.0
51884.0,STARLINK-3577,PAYLOAD,2024-08-01 22:38:52,15.08844301,0.0001433,53.2163,104.1488,76.6007,283.5144,0.00094676,0.00014814,0.0,0 STARLINK-3577,1 51884U 22022AJ  24214.94366163  .00014814  00000-0  94676-3 0  9998,2 51884  53.2163 104.1488 0001433  76.6007 283.5144 15.08844301135056,6917.867,95.437,540.724,538.741,0.0
51884.0,STARLINK-3577,PAYLOAD,2024-08-02 09:46:33,15.08862961,0.000154,53.2166,102.0656,72.721,287.3951,0.0010737,0.00016852,0.0,0 STARLINK-3577,1 51884U 22022AJ  24215.40733624  .00016852  00000-0  10737-2 0  9999,2 51884  53.2166 102.0656 0001540  72.7210 287.3951 15.08862961135123,6917.81,95.436,540.741,538.61,0.0
51884.0,STARLINK-3577,PAYLOAD,2024-08-02 20:54:15,15.0884551,0.0001581,53.2166,99.9867,78.4043,281.7126,0.0002746,4.086e-05,0.0,0 STARLINK-3577,1 51884U 22022AJ  24215.87101841  .00004086  00000-0  27460-3 0  9998,2 51884  53.2166  99.9867 0001581  78.4043 281.7126 15.08845510135193,6917.864,95.437,540.822,538.635,0.0
51884.0,STARLINK-3577,PAYLOAD,2024-08-02 22:29:39,15.08844995,0.0001223,53.2161,99.6893,76.446,283.6668,0.00027245,4.051e-05,0.0,0 STARLINK-3577,1 51884U 22022AJ  24215.93725730  .00004051  00000-0  27245-3 0  9997,2 51884  53.2161  99.6893 0001223  76.4460 283.6668 15.08844995135208,6917.865,95.437,540.576,538.884,0.0
51884.0,STARLINK-3577,PAYLOAD,2024-08-03 09:37:20,15.08861134,0.0001397,53.2157,97.6074,78.0619,282.053,0.0011189,0.00017574,0.0,0 STARLINK-3577,1 51884U 22022AJ  24216.40093394  .00017574  00000-0  11189-2 0  9997,2 51884  53.2157  97.6074 0001397  78.0619 282.0530 15.08861134135270,6917.816,95.436,540.647,538.714,0.0
51884.0,STARLINK-3577,PAYLOAD,2024-08-03 20:45:03,15.08842252,0.000149,53.2165,95.5249,93.7129,266.4034,0.0013688,0.00021565,0.0,0 STARLINK-3577,1 51884U 22022AJ  24216.86461930  .00021565  00000-0  13688-2 0  9993,2 51884  53.2165  95.5249 0001490  93.7129 266.4034 15.08842252135347,6917.874,95.437,540.769,538.708,0.0
51884.0,STARLINK-3577,PAYLOAD,2024-08-03 22:20:26,15.08844449,0.0001362,53.2163,95.2276,96.9925,263.1222,0.0017689,0.0002798,0.0,0 STARLINK-3577,1 51884U 22022AJ  24216.93085909  .00027980  00000-0  17689-2 0  9991,2 51884  53.2163  95.2276 0001362  96.9925 263.1222 15.08844449135353,6917.867,95.437,540.674,538.79,0.0
51884.0,STARLINK-3577,PAYLOAD,2024-08-04 22:11:13,15.08866543,0.0001287,53.2149,90.7686,84.7817,275.3322,0.0014112,0.00022259,0.0,0 STARLINK-3577,1 51884U 22022AJ  24217.92445673  .00022259  00000-0  14112-2 0  9991,2 51884  53.2149  90.7686 0001287  84.7817 275.3322 15.08866543135505,6917.799,95.436,540.555,538.774,0.0
51884.0,STARLINK-3577,PAYLOAD,2024-08-05 01:21:58,15.08879905,0.0001339,53.2162,90.1725,81.3513,278.7631,0.0017551,0.00027785,0.0,0 STARLINK-3577,1 51884U 22022AJ  24218.05693276  .00027785  00000-0  17551-2 0  9999,2 51884  53.2162  90.1725 0001339  81.3513 278.7631 15.08879905135520,6917.758,95.435,540.55,538.697,0.0
51884.0,STARLINK-3577,PAYLOAD,2024-08-05 22:02:00,15.08820552,0.0001252,53.2153,86.3077,99.4579,260.6555,-0.00051898,-8.533e-05,0.0,0 STARLINK-3577,1 51884U 22022AJ  24218.91806202 -.00008533  00000-0 -51898-3 0  9994,2 51884  53.2153  86.3077 0001252  99.4579 260.6555 15.08820552135656,6917.94,95.439,540.671,538.939,0.0
51884.0,STARLINK-3577,PAYLOAD,2024-08-06 01:12:47,15.08820823,0.0001276,53.2164,85.7113,102.2723,257.8412,-0.00020572,-3.559e-05,0.0,0 STARLINK-3577,1 51884U 22022AJ  24219.05054416 -.00003559  00000-0 -20572-3 0  9990,2 51884  53.2164  85.7113 0001276 102.2723 257.8412 15.08820823135675,6917.939,95.439,540.687,538.921,0.0
51884.0,STARLINK-3577,PAYLOAD,2024-08-06 20:17:25,15.08847821,0.0001197,53.216,82.1429,106.9333,253.179,0.0013122,0.00020662,0.0,0 STARLINK-3577,1 51884U 22022AJ  24219.84542934  .00020662  00000-0  13122-2 0  9998,2 51884  53.2160  82.1429 0001197 106.9333 253.1790 15.08847821135790,6917.856,95.437,540.55,538.893,0.0
51884.0,STARLINK-3577,PAYLOAD,2024-08-06 21:52:48,15.08854738,0.0001196,53.2161,81.8462,106.6327,253.4796,0.0015021,0.00023708,0.0,0 STARLINK-3577,1 51884U 22022AJ  24219.91166841  .00023708  00000-0  15021-2 0  9999,2 51884  53.2161  81.8462 0001196 106.6327 253.4796 15.08854738135809,6917.835,95.437,540.528,538.873,0.0
51884.0,STARLINK-3577,PAYLOAD,2024-08-07 20:08:11,15.08862462,0.0001346,53.2168,77.6837,113.3939,246.7195,0.0010281,0.00016122,0.0,0 STARLINK-3577,1 51884U 22022AJ  24220.83902237  .00016122  00000-0  10281-2 0  9994,2 51884  53.2168  77.6837 0001346 113.3939 246.7195 15.08862462135942,6917.812,95.436,540.608,538.746,0.0
51884.0,STARLINK-3577,PAYLOAD,2024-08-08 00:54:20,15.0885794,0.0001398,53.2167,76.7912,110.4464,249.6678,0.00051414,7.908e-05,0.0,0 STARLINK-3577,1 51884U 22022AJ  24221.03774067  .00007908  00000-0  51414-3 0  9991,2 51884  53.2167  76.7912 0001398 110.4464 249.6678 15.08857940135979,6917.826,95.436,540.658,538.723,0.0
51884.0,STARLINK-3577,PAYLOAD,2024-08-08 21:34:21,15.08844191,0.0001173,53.2158,72.9198,88.5463,271.5663,0.0001159,1.557e-05,0.0,0 STARLINK-3577,1 51884U 22022AJ  24221.89886197  .00001557  00000-0  11590-3 0  9998,2 51884  53.2158  72.9198 0001173  88.5463 271.5663 15.08844191136106,6917.868,95.437,540.544,538.921,0.0
